NORAD_CAT_ID,OBJECT_NAME,OBJECT_TYPE,EPOCH,MEAN_MOTION,ECCENTRICITY,INCLINATION,RA_OF_ASC_NODE,ARG_OF_PERICENTER,MEAN_ANOMALY,BSTAR,MEAN_MOTION_DOT,MEAN_MOTION_DDOT,TLE_LINE0,TLE_LINE1,TLE_LINE2,SEMIMAJOR_AXIS,PERIOD,APOGEE,PERIGEE,DECAYED
52645.0,STARLINK-3973,PAYLOAD,2023-08-19 03:16:18,15.08844507,0.0001301,53.2168,130.1113,94.9467,265.1674,8.0797e-05,9.98e-06,0.0,0 STARLINK-3973,1 52645U 22052AZ  23231.13632430  .00000998  00000-0  80797-4 0  9997,2 52645  53.2168 130.1113 0001301  94.9467 265.1674 15.08844507 70575,6917.867,95.437,540.632,538.832,0.0
52645.0,STARLINK-3973,PAYLOAD,2023-08-20 03:07:06,15.0883674,0.0001664,53.2177,125.6516,85.8814,274.2369,0.00012281,1.667e-05,0.0,0 STARLINK-3973,1 52645U 22052AZ  23232.12993355  .00001667  00000-0  12281-3 0  9999,2 52645  53.2177 125.6516 0001664  85.8814 274.2369 15.08836740 70727,6917.89,95.438,540.906,538.604,0.0
52645.0,STARLINK-3973,PAYLOAD,2023-08-21 01:22:29,15.08848802,0.0001363,53.2167,121.4891,93.7234,266.3914,0.00022976,3.371e-05,0.0,0 STARLINK-3973,1 52645U 22052AZ  23233.05728738  .00003371  00000-0  22976-3 0  9999,2 52645  53.2167 121.4891 0001363  93.7234 266.3914 15.08848802 70861,6917.853,95.437,540.661,538.776,0.0
52645.0,STARLINK-3973,PAYLOAD,2023-08-22 01:13:17,15.0883961,0.000141,53.2168,117.0285,101.311,258.8041,4.5954e-05,4.43e-06,0.0,0 STARLINK-3973,1 52645U 22052AZ  23234.05089296  .00000443  00000-0  45954-4 0  9998,2 52645  53.2168 117.0285 0001410 101.3110 258.8041 15.08839610 71014,6917.882,95.438,540.722,538.771,0.0
52645.0,STARLINK-3973,PAYLOAD,2023-08-24 18:24:06,15.08840528,0.0001415,53.2164,104.838,87.073,273.0424,5.2388e-05,5.46e-06,0.0,0 STARLINK-3973,1 52645U 22052AZ  23236.76673851  .00000546  00000-0  52388-4 0  9997,2 52645  53.2164 104.8380 0001415  87.0730 273.0424 15.08840528 71422,6917.879,95.438,540.723,538.765,0.0
52645.0,STARLINK-3973,PAYLOAD,2023-08-25 00:45:38,15.08842385,0.0001525,53.2168,103.6503,83.2503,276.8663,9.3437e-05,1.199e-05,0.0,0 STARLINK-3973,1 52645U 22052AZ  23237.03169842  .00001199  00000-0  93437-4 0  9993,2 52645  53.2168 103.6503 0001525  83.2503 276.8663 15.08842385 71089,6917.873,95.437,540.793,538.683,0.0
52645.0,STARLINK-3973,PAYLOAD,2023-08-25 19:50:16,15.08842147,0.0001452,53.217,100.0821,86.0974,274.0184,5.5675e-05,5.98e-06,0.0,0 STARLINK-3973,1 52645U 22052AZ  23237.82657907  .00000598  00000-0  55675-4 0  9998,2 52645  53.2170 100.0821 0001452  86.0974 274.0184 15.08842147 71206,6917.874,95.437,540.743,538.734,0.0
52645.0,STARLINK-3973,PAYLOAD,2023-08-26 00:36:25,15.08852041,0.0001232,53.2166,99.1867,92.9015,267.2118,0.00019438,2.808e-05,0.0,0 STARLINK-3973,1 52645U 22052AZ  23238.02529200  .00002808  00000-0  19438-3 0  9997,2 52645  53.2166  99.1867 0001232  92.9015 267.2118 15.08852041 71617,6917.844,95.437,540.561,538.856,0.0
52645.0,STARLINK-3973,PAYLOAD,2023-08-26 18:05:39,15.0884913,0.0001293,53.2159,95.9168,84.6638,275.4502,0.00016742,2.378e-05,0.0,0 STARLINK-3973,1 52645U 22052AZ  23238.75393216  .00002378  00000-0  16742-3 0  9990,2 52645  53.2159  95.9168 0001293  84.6638 275.4502 15.08849130 71728,6917.852,95.437,540.612,538.823,0.0
52645.0,STARLINK-3973,PAYLOAD,2023-08-26 21:16:25,15.0885161,0.00014,53.2172,95.3223,91.6862,268.4291,0.00018639,2.681e-05,0.0,0 STARLINK-3973,1 52645U 22052AZ  23238.88640985  .00002681  00000-0  18639-3 0  9996,2 52645  53.2172  95.3223 0001400  91.6862 268.4291 15.08851610 71369,6917.845,95.437,540.678,538.741,0.0
52645.0,STARLINK-3973,PAYLOAD,2023-08-27 00:27:11,15.08856127,0.00012,53.2175,94.726,93.0018,267.1112,0.00015546,2.188e-05,0.0,0 STARLINK-3973,1 52645U 22052AZ  23239.01888256  .00002188  00000-0  15546-3 0  9993,2 52645  53.2175  94.7260 0001200  93.0018 267.1112 15.08856127 71763,6917.831,95.437,540.526,538.866,0.0
52645.0,STARLINK-3973,PAYLOAD,2023-08-27 17:56:28,15.08802209,0.0001683,53.2184,91.4548,103.1053,257.0127,0.00050416,7.737e-05,0.0,0 STARLINK-3973,1 52645U 22052AZ  23239.74754813  .00007737  00000-0  50416-3 0  9994,2 52645  53.2184  91.4548 0001683 103.1053 257.0127 15.08802209 71871,6917.996,95.44,541.025,538.697,0.0
52645.0,STARLINK-3973,PAYLOAD,2023-08-27 19:31:50,15.08836349,0.0001085,53.2171,91.1521,111.3369,248.7739,-6.2381e-05,-1.28e-05,0.0,0 STARLINK-3973,1 52645U 22052AZ  23239.81377893 -.00001280  00000-0 -62381-4 0  9995,2 52645  53.2171  91.1521 0001085 111.3369 248.7739 15.08836349 71500,6917.892,95.438,540.507,539.006,0.0
52645.0,STARLINK-3973,PAYLOAD,2023-08-27 22:42:37,15.08835567,0.0001136,53.2171,90.5634,87.6713,272.4409,-3.4738e-05,-8.41e-06,0.0,0 STARLINK-3973,1 52645U 22052AZ  23239.94626285 -.00000841  00000-0 -34738-4 0  9998,2 52645  53.2171  90.5634 0001136  87.6713 272.4409 15.08835567 71906,6917.894,95.438,540.545,538.973,0.0
52645.0,STARLINK-3973,PAYLOAD,2023-08-28 20:58:00,15.08843678,0.0001052,53.2171,86.3997,89.1653,270.9459,-1.2441e-05,-4.86e-06,0.0,0 STARLINK-3973,1 52645U 22052AZ  23240.87361840 -.00000486  00000-0 -12441-4 0  9997,2 52645  53.2171  86.3997 0001052  89.1653 270.9459 15.08843678 71661,6917.869,95.437,540.462,539.006,0.0
52645.0,STARLINK-3973,PAYLOAD,2023-08-29 00:08:46,15.08846255,0.0001233,53.2173,85.8054,95.47,264.6433,8.6353e-05,1.087e-05,0.0,0 STARLINK-3973,1 52645U 22052AZ  23241.00609509  .00001087  00000-0  86353-4 0  9999,2 52645  53.2173  85.8054 0001233  95.4700 264.6433 15.08846255 72066,6917.861,95.437,540.579,538.873,0.0
52645.0,STARLINK-3973,PAYLOAD,2023-08-29 06:30:19,15.08838554,0.0001267,53.2173,84.6145,79.2866,280.8269,2.1052e-05,4.7e-07,0.0,0 STARLINK-3973,1 52645U 22052AZ  23241.27105886  .00000047  00000-0  21052-4 0  9997,2 52645  53.2173  84.6145 0001267  79.2866 280.8269 15.08838554 72109,6917.885,95.438,540.626,538.873,0.0
52645.0,STARLINK-3973,PAYLOAD,2023-08-29 19:13:24,15.08836234,0.0001309,53.2175,82.2361,79.2162,280.8977,0.00014248,1.98e-05,0.0,0 STARLINK-3973,1 52645U 22052AZ  23241.80098363  .00001980  00000-0  14248-3 0  9992,2 52645  53.2175  82.2361 0001309  79.2162 280.8977 15.08836234 71806,6917.892,95.438,540.662,538.851,0.0
52645.0,STARLINK-3973,PAYLOAD,2023-08-30 06:21:06,15.08840566,0.0001267,53.2176,80.1564,89.1905,270.9233,0.00015455,2.173e-05,0.0,0 STARLINK-3973,1 52645U 22052AZ  23242.26466220  .00002173  00000-0  15455-3 0  9990,2 52645  53.2176  80.1564 0001267  89.1905 270.9233 15.08840566 71872,6917.879,95.438,540.62,538.867,0.0
52645.0,STARLINK-3973,PAYLOAD,2023-08-30 22:14:57,15.08847121,0.0001265,53.2172,77.1819,86.6103,273.5034,8.7341e-05,1.103e-05,0.0,0 STARLINK-3973,1 52645U 22052AZ  23242.92705852  .00001103  00000-0  87341-4 0  9996,2 52645  53.2172  77.1819 0001265  86.6103 273.5034 15.08847121 72353,6917.859,95.437,540.599,538.849,0.0
52645.0,STARLINK-3973,PAYLOAD,2023-08-31 06:11:53,15.08843528,0.0001187,53.2168,75.6948,84.9538,275.159,4.0256e-05,3.53e-06,0.0,0 STARLINK-3973,1 52645U 22052AZ  23243.25825981  .00000353  00000-0  40256-4 0  9999,2 52645  53.2168  75.6948 0001187  84.9538 275.1590 15.08843528 72026,6917.87,95.437,540.556,538.913,0.0
52645.0,STARLINK-3973,PAYLOAD,2023-08-31 23:41:08,15.08845248,0.0001288,53.2175,72.4227,87.0236,273.0904,0.00011871,1.602e-05,0.0,0 STARLINK-3973,1 52645U 22052AZ  23243.98689944  .00001602  00000-0  11871-3 0  9994,2 52645  53.2175  72.4227 0001288  87.0236 273.0904 15.08845248 72511,6917.864,95.437,540.62,538.838,0.0
52645.0,STARLINK-3973,PAYLOAD,2023-09-01 12:24:13,15.08838696,0.0001276,53.2176,70.0439,87.3905,272.7233,1.6516e-05,-2.5e-07,0.0,0 STARLINK-3973,1 52645U 22052AZ  23244.51682387 -.00000025  00000-0  16516-4 0  9999,2 52645  53.2176  70.0439 0001276  87.3905 272.7233 15.08838696 72211,6917.884,95.438,540.632,538.867,0.0
52645.0,STARLINK-3973,PAYLOAD,2023-09-01 18:45:45,15.08843157,0.0001364,53.2162,68.8543,96.5533,263.5614,9.2638e-05,1.187e-05,0.0,0 STARLINK-3973,1 52645U 22052AZ  23244.78178091  .00001187  00000-0  92638-4 0  9998,2 52645  53.2162  68.8543 0001364  96.5533 263.5614 15.08843157 72639,6917.871,95.437,540.679,538.792,0.0
52645.0,STARLINK-3973,PAYLOAD,2023-09-02 05:53:27,15.08842922,0.0001262,53.2184,66.7733,95.7823,264.3313,0.00010098,1.32e-05,0.0,0 STARLINK-3973,1 52645U 22052AZ  23245.24546202  .00001320  00000-0  10098-3 0  9991,2 52645  53.2184  66.7733 0001262  95.7823 264.3313 15.08842922 72321,6917.871,95.437,540.609,538.863,0.0
52645.0,STARLINK-3973,PAYLOAD,2023-09-02 18:36:33,15.08839747,0.0001365,53.2167,64.3937,99.7233,260.3913,9.8997e-05,1.288e-05,0.0,0 STARLINK-3973,1 52645U 22052AZ  23245.77538451  .00001288  00000-0  98997-4 0  9994,2 52645  53.2167  64.3937 0001365  99.7233 260.3913 15.08839747 72788,6917.881,95.438,540.69,538.802,0.0
52645.0,STARLINK-3973,PAYLOAD,2023-09-02 21:47:19,15.08847723,0.0001367,53.2193,63.801,102.1912,257.9234,0.00012996,1.781e-05,0.0,0 STARLINK-3973,1 52645U 22052AZ  23245.90785905  .00001781  00000-0  12996-3 0  9999,2 52645  53.2193  63.8010 0001367 102.1912 257.9234 15.08847723 72802,6917.857,95.437,540.667,538.776,0.0
52645.0,STARLINK-3973,PAYLOAD,2023-09-03 18:27:20,15.0884543,0.0001192,53.2178,59.9353,93.1862,266.9267,0.00014888,2.083e-05,0.0,0 STARLINK-3973,1 52645U 22052AZ  23246.76898230  .00002083  00000-0  14888-3 0  9998,2 52645  53.2178  59.9353 0001192  93.1862 266.9267 15.08845430 72933,6917.864,95.437,540.553,538.904,0.0
52645.0,STARLINK-3973,PAYLOAD,2023-09-04 11:56:35,15.08831712,0.0001611,53.2203,56.6662,97.3333,262.7842,-2.3815e-05,-6.67e-06,0.0,0 STARLINK-3973,1 52645U 22052AZ  23247.49763025 -.00000667  00000-0 -23815-4 0  9991,2 52645  53.2203  56.6662 0001611  97.3333 262.7842 15.08831712 72665,6917.906,95.438,540.885,538.656,0.0
52645.0,STARLINK-3973,PAYLOAD,2023-09-04 18:18:07,15.08832048,0.0001522,53.2223,55.477,95.8649,264.2516,9.4209e-05,1.211e-05,0.0,0 STARLINK-3973,1 52645U 22052AZ  23247.76259206  .00001211  00000-0  94209-4 0  9991,2 52645  53.2223  55.4770 0001522  95.8649 264.2516 15.08832048 73083,6917.905,95.438,540.823,538.717,0.0
